NORAD_CAT_ID,OBJECT_NAME,OBJECT_TYPE,EPOCH,MEAN_MOTION,ECCENTRICITY,INCLINATION,RA_OF_ASC_NODE,ARG_OF_PERICENTER,MEAN_ANOMALY,BSTAR,MEAN_MOTION_DOT,MEAN_MOTION_DDOT,TLE_LINE0,TLE_LINE1,TLE_LINE2,SEMIMAJOR_AXIS,PERIOD,APOGEE,PERIGEE,DECAYED
51739.0,STARLINK-3516,PAYLOAD,2022-03-07 12:00:00,15.7309801,0.0001232,53.2182,70.7546,46.5301,44.825,0.00064483,0.0009046,0.0,0 STARLINK-3516,1 51739U 22016AB  22066.50001157  .00090460  00000-0  64483-3 0  9998,2 51739  53.2182  70.7546 0001232  46.5301  44.8250 15.73098010  3464,6728.186,91.539,350.88,349.222,0.0
51739.0,STARLINK-3516,PAYLOAD,2022-03-07 22:00:00,15.73142224,0.0001107999999999,53.2183,68.6907,58.2544,234.172,0.0007157999999999,0.00100799,0.0,0 STARLINK-3516,1 51739U 22016AB  22066.91667824  .00100799  00000-0  71580-3 0  9995,2 51739  53.2183  68.6907 0001108  58.2544 234.1720 15.73142224  2948,6728.06,91.537,350.67,349.17900000000014,0.0
51739.0,STARLINK-3516,PAYLOAD,2022-03-08 06:00:02,15.73231145,0.0001338,53.2183,67.0432,53.6731,327.7154,-0.00018011,-0.00025853,0.0,0 STARLINK-3516,1 51739U 22016AB  22067.25002315 -.00025853  00000-0 -18011-3 0  9990,2 51739  53.2183  67.0432 0001338  53.6731 327.7154 15.73231145  3588,6727.806,91.531,350.57199999999995,348.771,0.0
51739.0,STARLINK-3516,PAYLOAD,2022-03-08 14:00:01,15.73210576,0.0001412,53.2178,65.3936,56.5567,53.7349,4.9668e-05,6.359e-05,0.0,0 STARLINK-3516,1 51739U 22016AB  22067.58334491  .00006359  00000-0  49668-4 0  9990,2 51739  53.2178  65.3936 0001412  56.5567  53.7349 15.73210576  3042,6727.865,91.533,350.68,348.78,0.0
51739.0,STARLINK-3516,PAYLOAD,2022-03-08 20:00:01,15.73207239,0.0001235,53.2179,64.1552,66.3106,20.6843,0.00015308,0.00020924,0.0,0 STARLINK-3516,1 51739U 22016AB  22067.83334491  .00020924  00000-0  15308-3 0  9995,2 51739  53.2179  64.1552 0001235  66.3106  20.6843 15.73207239  3678,6727.875,91.533,350.57,348.909,0.0
51739.0,STARLINK-3516,PAYLOAD,2022-03-08 22:00:00,15.73233168,0.0001184,53.2179,63.7426,69.3812,129.843,-0.00024463,-0.00034858,0.0,0 STARLINK-3516,1 51739U 22016AB  22067.91667824 -.00034858  00000-0 -24463-3 0  9998,2 51739  53.2179  63.7426 0001184  69.3812 129.8430 15.73233168  3105,6727.801,91.531,350.462,348.869,0.0
51739.0,STARLINK-3516,PAYLOAD,2022-03-09 06:00:00,15.73177004,0.0001151,53.2181,62.0943,55.2187,232.9694,-0.00023713,-0.00033732,0.0,0 STARLINK-3516,1 51739U 22016AB  22068.25001157 -.00033732  00000-0 -23713-3 0  9994,2 51739  53.2181  62.0943 0001151  55.2187 232.9694 15.73177004  3741,6727.9609999999975,91.535,350.6,349.051,0.0
51739.0,STARLINK-3516,PAYLOAD,2022-03-09 14:00:01,15.73183359,0.0001033,53.2183,60.4456,47.1578,329.9089,0.00020795,0.00028643,0.0,0 STARLINK-3516,1 51739U 22016AB  22068.58334491  .00028643  00000-0  20795-3 0  9990,2 51739  53.2183  60.4456 0001033  47.1578 329.9089 15.73183359  3203,6727.943,91.534,350.50300000000016,349.11300000000006,0.0
51739.0,STARLINK-3516,PAYLOAD,2022-03-09 22:00:01,15.73194202,9.29e-05,53.2186,58.7945,59.5014,46.5391,0.00049622,0.00069582,0.0,0 STARLINK-3516,1 51739U 22016AB  22068.91668981  .00069582  00000-0  49622-3 0  9998,2 51739  53.2186  58.7945 0000929  59.5014  46.5391 15.73194202  3841,6727.9119999999975,91.534,350.402,349.152,0.0
51739.0,STARLINK-3516,PAYLOAD,2022-03-10 14:00:01,15.73284429,0.0001067,53.2178,55.4971,49.2892,234.6312,-0.00067298,-0.00094352,0.0,0 STARLINK-3516,1 51739U 22016AB  22069.58334491 -.00094352  00000-0 -67298-3 0  9992,2 51739  53.2178  55.4971 0001067  49.2892 234.6312 15.73284429  3360,6727.654,91.528,350.237,348.802,0.0
51739.0,STARLINK-3516,PAYLOAD,2022-03-10 20:00:01,15.73187702,0.0001012,53.2179,54.2586,62.3099,198.3778,0.00065387,0.00092108,0.0,0 STARLINK-3516,1 51739U 22016AB  22069.83334491  .00092108  00000-0  65387-3 0  9992,2 51739  53.2179  54.2586 0001012  62.3099 198.3778 15.73187702  3992,6727.93,91.534,350.476,349.11400000000015,0.0
51739.0,STARLINK-3516,PAYLOAD,2022-03-10 22:00:01,15.73212969,0.0001051,53.2181,53.8461,65.9682,307.0144,0.00043431,0.00060808,0.0,0 STARLINK-3516,1 51739U 22016AB  22069.91668981  .00060808  00000-0  43431-3 0  9993,2 51739  53.2181  53.8461 0001051  65.9682 307.0144 15.73212969  3419,6727.858,91.532,350.43,349.016,0.0
51739.0,STARLINK-3516,PAYLOAD,2022-03-11 04:00:00,15.73289448,0.0001099,53.2182,52.6106,58.0656,291.5734,-0.00088888,-0.00124016,0.0,0 STARLINK-3516,1 51739U 22016AB  22070.16667824 -.00124016  00000-0 -88888-3 0  9996,2 51739  53.2182  52.6106 0001099  58.0656 291.5734 15.73289448  4047,6727.64,91.528,350.245,348.766,0.0
51739.0,STARLINK-3516,PAYLOAD,2022-03-11 12:00:00,15.73199411,0.0001154,53.2181,50.9614,54.2539,24.3892,0.00020072,0.00027641,0.0,0 STARLINK-3516,1 51739U 22016AB  22070.50001157  .00027641  00000-0  20072-3 0  9990,2 51739  53.2181  50.9614 0001154  54.2539  24.3892 15.73199411  4093,6727.897,91.533,350.538,348.985,0.0
51739.0,STARLINK-3516,PAYLOAD,2022-03-11 22:00:00,15.73187001,9.66e-05,53.2185,48.8977,66.7723,213.0423,0.00033095,0.00046055,0.0,0 STARLINK-3516,1 51739U 22016AB  22070.91667824  .00046055  00000-0  33095-3 0  9993,2 51739  53.2185  48.8977 0000966  66.7723 213.0423 15.73187001  4165,6727.932,91.534,350.44699999999995,349.147,0.0
51739.0,STARLINK-3516,PAYLOAD,2022-03-12 06:00:00,15.73217924,0.0001053,53.2183,47.2504,53.6588,315.0881,-0.00063515,-0.00088888,0.0,0 STARLINK-3516,1 51739U 22016AB  22071.25001157 -.00088888  00000-0 -63515-3 0  9994,2 51739  53.2183  47.2504 0001053  53.6588 315.0881 15.73217924  4219,6727.844,91.532,350.418,349.001,0.0
51739.0,STARLINK-3516,PAYLOAD,2022-03-12 14:00:01,15.73161872,0.0001028,53.2177,45.6,61.2416,36.4264,0.00026282,0.00036364,0.0,0 STARLINK-3516,1 51739U 22016AB  22071.58334491  .00036364  00000-0  26282-3 0  9990,2 51739  53.2177  45.6000 0001028  61.2416  36.4264 15.73161872  4266,6728.004,91.535,350.561,349.177,0.0
51739.0,STARLINK-3516,PAYLOAD,2022-03-12 22:00:00,15.73283419,0.0001061,53.2175,43.9447,84.9478,101.6346,-0.0019781,-0.0027045,0.0,0 STARLINK-3516,1 51739U 22016AB  22071.91667824 -.00270450  00000-0 -19781-2 0  9999,2 51739  53.2175  43.9447 0001061  84.9478 101.6346 15.73283419  3703,6727.656999999997,91.528,350.236,348.809,0.0
51739.0,STARLINK-3516,PAYLOAD,2022-03-13 06:00:00,15.73135937,0.0001351,53.2181,42.3022,66.7363,208.7705,0.0005319,0.00074487,0.0,0 STARLINK-3516,1 51739U 22016AB  22072.25001157  .00074487  00000-0  53190-3 0  9991,2 51739  53.2181  42.3022 0001351  66.7363 208.7705 15.73135937  4378,6728.078,91.537,350.852,349.034,0.0
51739.0,STARLINK-3516,PAYLOAD,2022-03-13 14:00:01,15.73210696,0.0001197,53.2183,40.6518,67.8989,296.4691,-2.9833e-05,-4.806e-05,0.0,0 STARLINK-3516,1 51739U 22016AB  22072.58334491 -.00004806  00000-0 -29833-4 0  9995,2 51739  53.2183  40.6518 0001197  67.8989 296.4691 15.73210696  3716,6727.865,91.533,350.535,348.9240000000001,0.0
51739.0,STARLINK-3516,PAYLOAD,2022-03-13 20:00:01,15.73194229,0.0001059,53.2183,39.4133,75.4343,265.6324,-8.921299999999999e-05,-0.00013117,0.0,0 STARLINK-3516,1 51739U 22016AB  22072.83334491 -.00013117  00000-0 -89213-4 0  9996,2 51739  53.2183  39.4133 0001059  75.4343 265.6324 15.73194229  4468,6727.9119999999975,91.534,350.48900000000015,349.064,0.0
51739.0,STARLINK-3516,PAYLOAD,2022-03-13 22:00:01,15.73196328,0.0001052,53.2186,39.0011,75.883,17.4787,-0.00017447,-0.00025028,0.0,0 STARLINK-3516,1 51739U 22016AB  22072.91668981 -.00025028  00000-0 -17447-3 0  9992,2 51739  53.2186  39.0011 0001052  75.8830  17.4787 15.73196328  3715,6727.906,91.533,350.478,349.06300000000016,0.0
51739.0,STARLINK-3516,PAYLOAD,2022-03-14 04:00:00,15.73206887,9.42e-05,53.2183,37.7658,62.0613,7.9475,-0.00020809,-0.00029728,0.0,0 STARLINK-3516,1 51739U 22016AB  22073.16667824 -.00029728  00000-0 -20809-3 0  9992,2 51739  53.2183  37.7658 0000942  62.0613   7.9475 15.73206887  4517,6727.876,91.533,350.374,349.107,0.0
51739.0,STARLINK-3516,PAYLOAD,2022-03-14 12:00:00,15.7323051,8.1e-05,53.2177,36.1159,59.424,99.5247,0.00045447,0.0006372999999999,0.0,0 STARLINK-3516,1 51739U 22016AB  22073.50001157  .00063730  00000-0  45447-3 0  9995,2 51739  53.2177  36.1159 0000810  59.4240  99.5247 15.73230510  4579,6727.808000000001,91.531,350.218,349.12800000000016,0.0
51739.0,STARLINK-3516,PAYLOAD,2022-03-14 14:00:01,15.73245027,7.780000000000001e-05,53.2178,35.7028,67.2395,204.0154,0.00044826,0.00062884,0.0,0 STARLINK-3516,1 51739U 22016AB  22073.58335648  .00062884  00000-0  44826-3 0  9997,2 51739  53.2178  35.7028 0000778  67.2395 204.0154 15.73245027  3692,6727.767,91.531,350.155,349.108,0.0
51739.0,STARLINK-3516,PAYLOAD,2022-03-14 20:00:01,15.73277737,7.859999999999999e-05,53.2179,34.4648,85.6309,162.3078,0.00072998,0.00103441,0.0,0 STARLINK-3516,1 51739U 22016AB  22073.83334491  .00103441  00000-0  72998-3 0  9996,2 51739  53.2179  34.4648 0000786  85.6309 162.3078 15.73277737  3699,6727.674,91.529,350.06699999999995,349.01,0.0
51739.0,STARLINK-3516,PAYLOAD,2022-03-14 22:00:00,15.7320631,0.0001149,53.2182,34.0527,82.6752,277.471,-0.00018402,-0.00026371,0.0,0 STARLINK-3516,1 51739U 22016AB  22073.91667824 -.00026371  00000-0 -18402-3 0  9992,2 51739  53.2182  34.0527 0001149  82.6752 277.4710 15.73206310  4633,6727.877,91.533,350.515,348.969,0.0
51739.0,STARLINK-3516,PAYLOAD,2022-03-15 02:00:01,15.73174547,0.0001206,53.2183,33.2274,76.6755,147.9434,0.00022297,0.00030753,0.0,0 STARLINK-3516,1 51739U 22016AB  22074.08334491  .00030753  00000-0  22297-3 0  9996,2 51739  53.2183  33.2274 0001206  76.6755 147.9434 15.73174547  4667,6727.968000000003,91.535,350.644,349.021,0.0
51739.0,STARLINK-3516,PAYLOAD,2022-03-15 22:00:00,15.73139612,8.190000000000001e-05,53.219,29.1046,79.0155,187.8013,0.0002559,0.00035352,0.0,0 STARLINK-3516,1 51739U 22016AB  22074.91667824  .00035352  00000-0  25590-3 0  9996,2 51739  53.2190  29.1046 0000819  79.0155 187.8013 15.73139612  4790,6728.066999999999,91.537,350.483,349.381,0.0
